NORAD_CAT_ID,OBJECT_NAME,OBJECT_TYPE,EPOCH,MEAN_MOTION,ECCENTRICITY,INCLINATION,RA_OF_ASC_NODE,ARG_OF_PERICENTER,MEAN_ANOMALY,BSTAR,MEAN_MOTION_DOT,MEAN_MOTION_DDOT,TLE_LINE0,TLE_LINE1,TLE_LINE2,SEMIMAJOR_AXIS,PERIOD,APOGEE,PERIGEE,DECAYED
55764.0,STARLINK-5499,PAYLOAD,2023-12-30 14:19:41,14.98338729,0.000264,70.0,81.9119,292.1804,67.9074,-1.9634e-05,-3.27e-06,0.0,0 STARLINK-5499,1 55764U 23028Z   23364.59700368 -.00000327  00000-0 -19634-4 0  9999,2 55764  70.0000  81.9119 0002640 292.1804  67.9074 14.98338729 46684,6950.166,96.106,573.866,570.196,0.0
55764.0,STARLINK-5499,PAYLOAD,2023-12-31 11:09:26,14.98330237,0.0002645,70.0005,79.7241,290.3083,69.7792,-0.00017181,-2.142e-05,0.0,0 STARLINK-5499,1 55764U 23028Z   23365.46488875 -.00002142  00000-0 -17181-3 0  9993,2 55764  70.0005  79.7241 0002645 290.3083  69.7792 14.98330237 46812,6950.192,96.107,573.895,570.219,0.0
55764.0,STARLINK-5499,PAYLOAD,2023-12-31 14:21:42,14.98330995,0.0002673,70.0006,79.3869,296.4563,63.6322,-6.9613e-05,-9.23e-06,0.0,0 STARLINK-5499,1 55764U 23028Z   23365.59840543 -.00000923  00000-0 -69613-4 0  9994,2 55764  70.0006  79.3869 0002673 296.4563  63.6322 14.98330995 46831,6950.19,96.107,573.913,570.197,0.0
55764.0,STARLINK-5499,PAYLOAD,2024-01-01 11:11:25,14.98345292,0.0003048,70.0002,77.1988,299.5376,60.5479,0.00016676,1.898e-05,0.0,0 STARLINK-5499,1 55764U 23028Z   24001.46626824  .00001898  00000-0  16676-3 0  9992,2 55764  70.0002  77.1988 0003048 299.5376  60.5479 14.98345292 46967,6950.146,96.106,574.129,569.892,0.0
55764.0,STARLINK-5499,PAYLOAD,2024-01-01 14:23:42,14.98339699,0.0002851,70.0005,76.8619,296.0044,64.0821,6.1854e-05,6.45e-06,0.0,0 STARLINK-5499,1 55764U 23028Z   24001.59979317  .00000645  00000-0  61854-4 0  9992,2 55764  70.0005  76.8619 0002851 296.0044  64.0821 14.98339699 46988,6950.163,96.106,574.009,570.046,0.0
55764.0,STARLINK-5499,PAYLOAD,2024-01-02 11:13:28,14.98316779,0.0002036,70.0015,74.6766,266.7938,93.2988,-2.9743e-05,-4.48e-06,0.0,0 STARLINK-5499,1 55764U 23028Z   24002.46768998 -.00000448  00000-0 -29743-4 0  9994,2 55764  70.0015  74.6766 0002036 266.7938  93.2988 14.98316779 47117,6950.234,96.108,573.514,570.684,0.0
55764.0,STARLINK-5499,PAYLOAD,2024-01-02 14:25:44,14.98318775,0.0002335,70.0009,74.3393,276.8655,83.2238,-2.3459e-05,-3.73e-06,0.0,0 STARLINK-5499,1 55764U 23028Z   24002.60120948 -.00000373  00000-0 -23459-4 0  9992,2 55764  70.0009  74.3393 0002335 276.8655  83.2238 14.98318775 47130,6950.228,96.108,573.715,570.47,0.0
55764.0,STARLINK-5499,PAYLOAD,2024-01-03 03:14:48,14.98330659,0.0003022,69.9998,72.9898,295.6044,64.4802,-2.2904e-05,-3.66e-06,0.0,0 STARLINK-5499,1 55764U 23028Z   24003.13528382 -.00000366  00000-0 -22904-4 0  9991,2 55764  69.9998  72.9898 0003022 295.6044  64.4802 14.98330659 47215,6950.191,96.107,574.156,569.956,0.0
55764.0,STARLINK-5499,PAYLOAD,2024-01-03 14:27:44,14.98336497,0.0003022,69.9997,71.8123,287.7711,72.3118,4.6333e-05,4.6e-06,0.0,0 STARLINK-5499,1 55764U 23028Z   24003.60259673  .00000460  00000-0  46333-4 0  9992,2 55764  69.9997  71.8123 0003022 287.7711  72.3118 14.98336497 47287,6950.173,96.107,574.138,569.937,0.0
55764.0,STARLINK-5499,PAYLOAD,2024-01-04 11:17:29,14.98328861,0.0002723,70.0001,69.6238,284.6347,75.451,0.00012225,1.366e-05,0.0,0 STARLINK-5499,1 55764U 23028Z   24004.47047834  .00001366  00000-0  12225-3 0  9990,2 55764  70.0001  69.6238 0002723 284.6347  75.4510 14.98328861 47417,6950.196,96.107,573.954,570.169,0.0
55764.0,STARLINK-5499,PAYLOAD,2024-01-04 14:29:45,14.98330882,0.0002721,70.0002,69.2873,284.8978,75.188,0.0001379,1.553e-05,0.0,0 STARLINK-5499,1 55764U 23028Z   24004.60399657  .00001553  00000-0  13790-3 0  9994,2 55764  70.0002  69.2873 0002721 284.8978  75.1880 14.98330882 47434,6950.19,96.107,573.946,570.164,0.0
55764.0,STARLINK-5499,PAYLOAD,2024-01-05 11:19:30,14.98329163,0.0002572,70.0005,67.0993,285.7976,74.2899,-1.7667e-05,-3.04e-06,0.0,0 STARLINK-5499,1 55764U 23028Z   24005.47188145 -.00000304  00000-0 -17667-4 0  9991,2 55764  70.0005  67.0993 0002572 285.7976  74.2899 14.98329163 47562,6950.195,96.107,573.848,570.273,0.0
55764.0,STARLINK-5499,PAYLOAD,2024-01-05 14:31:46,14.98330152,0.0002557,70.0006,66.7627,285.27,74.8176,-6.1842e-06,-1.67e-06,0.0,0 STARLINK-5499,1 55764U 23028Z   24005.60540046 -.00000167  00000-0 -61842-5 0  9990,2 55764  70.0006  66.7627 0002557 285.2700  74.8176 14.98330152 47582,6950.192,96.107,573.835,570.28,0.0
55764.0,STARLINK-5499,PAYLOAD,2024-01-06 11:21:31,14.98329237,0.0002508,70.0004,64.5748,276.8262,83.2611,-3.5205e-05,-5.13e-06,0.0,0 STARLINK-5499,1 55764U 23028Z   24006.47328020 -.00000513  00000-0 -35205-4 0  9990,2 55764  70.0004  64.5748 0002508 276.8262  83.2611 14.98329237 47710,6950.195,96.107,573.803,570.317,0.0
55764.0,STARLINK-5499,PAYLOAD,2024-01-06 12:57:39,14.98329489,0.0002517,70.0004,64.4064,277.2642,82.8231,-3.1873e-05,-4.73e-06,0.0,0 STARLINK-5499,1 55764U 23028Z   24006.54004000 -.00000473  00000-0 -31873-4 0  9999,2 55764  70.0004  64.4064 0002517 277.2642  82.8231 14.98329489 47720,6950.194,96.107,573.809,570.31,0.0
55764.0,STARLINK-5499,PAYLOAD,2024-01-07 11:23:31,14.98331488,0.0002633,70.0001,62.0499,275.5509,84.535,4.8089e-05,4.81e-06,0.0,0 STARLINK-5499,1 55764U 23028Z   24007.47467519  .00000481  00000-0  48089-4 0  9994,2 55764  70.0001  62.0499 0002633 275.5509  84.5350 14.98331488 47863,6950.188,96.107,573.883,570.223,0.0
55764.0,STARLINK-5499,PAYLOAD,2024-01-07 12:59:39,14.98331794,0.0002642,70.0001,61.8816,275.9605,84.1253,5.0538e-05,5.1e-06,0.0,0 STARLINK-5499,1 55764U 23028Z   24007.54143494  .00000510  00000-0  50538-4 0  9990,2 55764  70.0001  61.8816 0002642 275.9605  84.1253 14.98331794 47873,6950.187,96.107,573.889,570.216,0.0
55764.0,STARLINK-5499,PAYLOAD,2024-01-08 11:25:32,14.98330138,0.0002599,70.0002,59.5258,272.2454,87.8407,2.5852e-05,2.16e-06,0.0,0 STARLINK-5499,1 55764U 23028Z   24008.47607569  .00000216  00000-0  25852-4 0  9995,2 55764  70.0002  59.5258 0002599 272.2454  87.8407 14.98330138 48010,6950.192,96.107,573.864,570.251,0.0
55764.0,STARLINK-5499,PAYLOAD,2024-01-08 13:01:40,14.98330584,0.0002597,70.0002,59.3576,272.2274,87.8587,2.981e-05,2.63e-06,0.0,0 STARLINK-5499,1 55764U 23028Z   24008.54283530  .00000263  00000-0  29810-4 0  9991,2 55764  70.0002  59.3576 0002597 272.2274  87.8587 14.98330584 48024,6950.191,96.107,573.861,570.251,0.0
55764.0,STARLINK-5499,PAYLOAD,2024-01-09 11:27:33,14.98331048,0.000252,70.0004,57.0013,270.3292,89.7578,-3.0392e-06,-1.29e-06,0.0,0 STARLINK-5499,1 55764U 23028Z   24009.47747515 -.00000129  00000-0 -30392-5 0  9993,2 55764  70.0004  57.0013 0002520 270.3292  89.7578 14.98331048 48164,6950.19,96.107,573.806,570.303,0.0
55764.0,STARLINK-5499,PAYLOAD,2024-01-09 13:03:41,14.98331202,0.0002555,70.0004,56.8329,272.1894,87.8973,-1.7608e-06,-1.14e-06,0.0,0 STARLINK-5499,1 55764U 23028Z   24009.54423512 -.00000114  00000-0 -17608-5 0  9998,2 55764  70.0004  56.8329 0002555 272.1894  87.8973 14.98331202 48178,6950.189,96.107,573.83,570.278,0.0
55764.0,STARLINK-5499,PAYLOAD,2024-01-10 11:29:34,14.98331685,0.0002633,70.0003,54.4747,275.7457,84.3402,2.2434e-05,1.75e-06,0.0,0 STARLINK-5499,1 55764U 23028Z   24010.47887319  .00000175  00000-0  22434-4 0  9998,2 55764  70.0003  54.4747 0002633 275.7457  84.3402 14.98331685 48316,6950.188,96.107,573.883,570.223,0.0
55764.0,STARLINK-5499,PAYLOAD,2024-01-11 11:31:35,14.98329458,0.0002597,70.0004,51.9498,274.1722,85.9141,1.6797e-05,1.07e-06,0.0,0 STARLINK-5499,1 55764U 23028Z   24011.48027448  .00000107  00000-0  16797-4 0  9999,2 55764  70.0004  51.9498 0002597 274.1722  85.9141 14.98329458 48467,6950.195,96.107,573.865,570.255,0.0
55764.0,STARLINK-5499,PAYLOAD,2024-01-11 13:07:43,14.98330101,0.0002598,70.0004,51.7815,274.2846,85.8016,2.3464e-05,1.87e-06,0.0,0 STARLINK-5499,1 55764U 23028Z   24011.54703395  .00000187  00000-0  23464-4 0  9995,2 55764  70.0004  51.7815 0002598 274.2846  85.8016 14.98330101 48475,6950.193,96.107,573.863,570.252,0.0
55764.0,STARLINK-5499,PAYLOAD,2024-01-12 11:33:36,14.9832697,0.0002531,70.0006,49.4249,270.9934,89.0935,-2.1906e-05,-3.54e-06,0.0,0 STARLINK-5499,1 55764U 23028Z   24012.48167750 -.00000354  00000-0 -21906-4 0  9995,2 55764  70.0006  49.4249 0002531 270.9934  89.0935 14.98326970 48611,6950.202,96.107,573.826,570.308,0.0
55764.0,STARLINK-5499,PAYLOAD,2024-01-13 11:35:37,14.98330295,0.0002635,70.0002,46.8997,266.1741,93.9117,3.131e-05,2.81e-06,0.0,0 STARLINK-5499,1 55764U 23028Z   24013.48307367  .00000281  00000-0  31310-4 0  9993,2 55764  70.0002  46.8997 0002635 266.1741  93.9117 14.98330295 48763,6950.192,96.107,573.888,570.226,0.0
55764.0,STARLINK-5499,PAYLOAD,2024-01-14 11:37:38,14.98327463,0.0002598,70.0003,44.3751,260.2675,99.8191,4.185e-05,4.06e-06,0.0,0 STARLINK-5499,1 55764U 23028Z   24014.48447625  .00000406  00000-0  41850-4 0  9995,2 55764  70.0003  44.3751 0002598 260.2675  99.8191 14.98327463 48911,6950.201,96.107,573.871,570.26,0.0
55764.0,STARLINK-5499,PAYLOAD,2024-01-15 11:39:39,14.98334012,0.0002591,70.0004,41.8505,259.9189,100.1678,5.2359e-05,5.32e-06,0.0,0 STARLINK-5499,1 55764U 23028Z   24015.48587096  .00000532  00000-0  52359-4 0  9999,2 55764  70.0004  41.8505 0002591 259.9189 100.1678 14.98334012 49060,6950.18,96.107,573.846,570.245,0.0
55764.0,STARLINK-5499,PAYLOAD,2024-01-15 22:52:36,14.9832892,0.0002627,70.0004,40.6708,268.3887,91.6971,3.3022e-05,3.01e-06,0.0,0 STARLINK-5499,1 55764U 23028Z   24015.95319449  .00000301  00000-0  33022-4 0  9996,2 55764  70.0004  40.6708 0002627 268.3887  91.6971 14.98328920 49130,6950.196,96.107,573.887,570.235,0.0
55764.0,STARLINK-5499,PAYLOAD,2024-01-16 11:41:40,14.98327033,0.0002636,70.0006,39.3245,270.0317,90.054,-4.2073e-06,-1.43e-06,0.0,0 STARLINK-5499,1 55764U 23028Z   24016.48727756 -.00000143  00000-0 -42073-5 0  9992,2 55764  70.0006  39.3245 0002636 270.0317  90.0540 14.98327033 49219,6950.202,96.107,573.899,570.235,0.0
